{
  "type": "FeatureCollection",
  "features": [
    {
      "type": "Feature",
      "properties": {
        "norad_id": 46965,
        "name": "IRIDIUM 33 DEB",
        "group": "iridium-33-debris",
        "lat": -25.465407607768913,
        "lon": 155.92736572771247,
        "alt_km": 694.5179150380573,
        "timestamp": "2025-12-27T10:28:59.180098+00:00",
        "meta_object_name": "IRIDIUM 33 DEB",
        "meta_object_id": "1997-051ABX",
        "meta_epoch": "2025-12-23T05:18:49.392864",
        "meta_mean_motion": 14.60370511,
        "meta_eccentricity": 0.00170224,
        "meta_inclination": 86.3362,
        "meta_ra_of_asc_node": 336.0473,
        "meta_arg_of_pericenter": 295.0187,
        "meta_mean_anomaly": 82.9345,
        "meta_ephemeris_type": 0,
        "meta_classification_type": "U",
        "meta_norad_cat_id": 46965,
        "meta_element_set_no": 999,
        "meta_rev_at_epoch": 62421,
        "meta_bstar": 0.00084803208,
        "meta_mean_motion_dot": 4.13e-05,
        "meta_mean_motion_ddot": 0,
        "tle_line1": "1 46965U 97051ABX 25357.22140501  .00004130  00000+0  84803-3 0  9992",
        "tle_line2": "2 46965  86.3362 336.0473 0017022 295.0187  82.9345 14.60370511624214"
      },
      "geometry": {
        "type": "Point",
        "coordinates": [
          155.92736572771247,
          -25.465407607768913
        ]
      }
    },
    {
      "type": "Feature",
      "properties": {
        "norad_id": 46971,
        "name": "IRIDIUM 33 DEB",
        "group": "iridium-33-debris",
        "lat": 41.663476985939546,
        "lon": 142.93510616031372,
        "alt_km": 567.9141008408969,
        "timestamp": "2025-12-27T10:28:59.180108+00:00",
        "meta_object_name": "IRIDIUM 33 DEB",
        "meta_object_id": "1997-051ACD",
        "meta_epoch": "2025-12-18T04:46:20.926848",
        "meta_mean_motion": 14.98336604,
        "meta_eccentricity": 0.00026432,
        "meta_inclination": 86.3383,
        "meta_ra_of_asc_node": 330.5483,
        "meta_arg_of_pericenter": 282.6501,
        "meta_mean_anomaly": 90.914,
        "meta_ephemeris_type": 0,
        "meta_classification_type": "U",
        "meta_norad_cat_id": 46971,
        "meta_element_set_no": 999,
        "meta_rev_at_epoch": 64312,
        "meta_bstar": 0.0022892837,
        "meta_mean_motion_dot": 0.00027356,
        "meta_mean_motion_ddot": 0,
        "tle_line1": "1 46971U 97051ACD 25352.19885332  .00027356  00000+0  22893-2 0  9993",
        "tle_line2": "2 46971  86.3383 330.5483 0002643 282.6501  90.9140 14.98336604643128"
      },
      "geometry": {
        "type": "Point",
        "coordinates": [
          142.93510616031372,
          41.663476985939546
        ]
      }
    },
    {
      "type": "Feature",
      "properties": {
        "norad_id": 46972,
        "name": "IRIDIUM 33 DEB",
        "group": "iridium-33-debris",
        "lat": -65.75262403102495,
        "lon": 25.01011389495085,
        "alt_km": 735.8601750941225,
        "timestamp": "2025-12-27T10:28:59.180118+00:00",
        "meta_object_name": "IRIDIUM 33 DEB",
        "meta_object_id": "1997-051ACE",
        "meta_epoch": "2025-12-24T20:41:33.679968",
        "meta_mean_motion": 14.50725222,
        "meta_eccentricity": 0.00114655,
        "meta_inclination": 86.386,
        "meta_ra_of_asc_node": 34.1849,
        "meta_arg_of_pericenter": 73.1922,
        "meta_mean_anomaly": 103.3991,
        "meta_ephemeris_type": 0,
        "meta_classification_type": "U",
        "meta_norad_cat_id": 46972,
        "meta_element_set_no": 999,
        "meta_rev_at_epoch": 61748,
        "meta_bstar": 0.00047832722,
        "meta_mean_motion_dot": 1.902e-05,
        "meta_mean_motion_ddot": 0,
        "tle_line1": "1 46972U 97051ACE 25358.86219537  .00001902  00000+0  47833-3 0  9993",
        "tle_line2": "2 46972  86.3860  34.1849 0011465  73.1922 103.3991 14.50725222617483"
      },
      "geometry": {
        "type": "Point",
        "coordinates": [
          25.01011389495085,
          -65.75262403102495
        ]
      }
    },
    {
      "type": "Feature",
      "properties": {
        "norad_id": 46974,
        "name": "IRIDIUM 33 DEB",
        "group": "iridium-33-debris",
        "lat": 12.123531206358358,
        "lon": -81.93904291452942,
        "alt_km": 684.3376037709331,
        "timestamp": "2025-12-27T10:28:59.180128+00:00",
        "meta_object_name": "IRIDIUM 33 DEB",
        "meta_object_id": "1997-051ACG",
        "meta_epoch": "2025-12-26T23:44:28.817088",
        "meta_mean_motion": 14.44752736,
        "meta_eccentricity": 0.0095209,
        "meta_inclination": 86.2979,
        "meta_ra_of_asc_node": 99.0534,
        "meta_arg_of_pericenter": 140.8624,
        "meta_mean_anomaly": 219.9515,
        "meta_ephemeris_type": 0,
        "meta_classification_type": "U",
        "meta_norad_cat_id": 46974,
        "meta_element_set_no": 999,
        "meta_rev_at_epoch": 57714,
        "meta_bstar": 0.0042245,
        "meta_mean_motion_dot": 0.00015541,
        "meta_mean_motion_ddot": 0,
        "tle_line1": "1 46974U 97051ACG 25360.98922242  .00015541  00000+0  42245-2 0  9990",
        "tle_line2": "2 46974  86.2979  99.0534 0095209 140.8624 219.9515 14.44752736577142"
      },
      "geometry": {
        "type": "Point",
        "coordinates": [
          -81.93904291452942,
          12.123531206358358
        ]
      }
    },
    {
      "type": "Feature",
      "properties": {
        "norad_id": 46979,
        "name": "IRIDIUM 33 DEB",
        "group": "iridium-33-debris",
        "lat": 57.58124235833541,
        "lon": 47.51403068636284,
        "alt_km": 598.2910138638672,
        "timestamp": "2025-12-27T10:28:59.180140+00:00",
        "meta_object_name": "IRIDIUM 33 DEB",
        "meta_object_id": "1997-051ACM",
        "meta_epoch": "2025-12-24T20:59:38.183136",
        "meta_mean_motion": 14.90364123,
        "meta_eccentricity": 0.002819,
        "meta_inclination": 86.3328,
        "meta_ra_of_asc_node": 42.91,
        "meta_arg_of_pericenter": 179.7106,
        "meta_mean_anomaly": 180.4142,
        "meta_ephemeris_type": 0,
        "meta_classification_type": "U",
        "meta_norad_cat_id": 46979,
        "meta_element_set_no": 999,
        "meta_rev_at_epoch": 35609,
        "meta_bstar": 0.0040991,
        "meta_mean_motion_dot": 0.00040379,
        "meta_mean_motion_ddot": 0,
        "tle_line1": "1 46979U 97051ACM 25358.87474749  .00040379  00000+0  40991-2 0  9997",
        "tle_line2": "2 46979  86.3328  42.9100 0028190 179.7106 180.4142 14.90364123356090"
      },
      "geometry": {
        "type": "Point",
        "coordinates": [
          47.51403068636284,
          57.58124235833541
        ]
      }
    }
  ]
}